# From MPC106342
C/1995 O1 (Hale-Bopp),e,89.0231,283.2905,130.5358,179.0161,0.0004115,0.99494701,0.0000,03/29.7389/1997,2000,g -2.0,4.0
# From NK 1615
P/1996 R2 (Lagerkvist),e,2.6003,40.0289,333.3127,3.775026,0.1343767,0.31408017,95.7198,01/24.0/2021,2000,g 11.5,4.0
# From MPC 30063
P/1997 B1 (Kobayashi),e,12.3395,328.8832,183.3539,8.569600,0.0392883,0.76013404,343.1534,01/24.0/2021,2000,g 15.0,2.0
# From MPC 75703
P/1998 VS24 (LINEAR),e,5.0255,159.0320,244.6597,4.529228,0.1022511,0.24205095,112.6802,01/24.0/2021,2000,g 13.0,2.0
# From NK 731
P/1999 RO28 (LONEOS),e,7.5669,137.8841,231.2670,3.426749,0.1553748,0.67210141,89.7853,01/24.0/2021,2000,g 20.0,2.0
# From MPC 75704
P/1999 XN120 (Catalina),e,5.0296,285.2962,161.8827,4.179031,0.1153694,0.21029370,152.7017,01/24.0/2021,2000,g 13.5,2.0
# From NK 744
P/2000 R2 (LINEAR),e,11.6849,160.2921,176.5220,3.466240,0.1527271,0.53158259,89.5838,01/24.0/2021,2000,g 18.0,4.0
# From MPC 43019
P/2001 H5 (NEAT),e,8.3670,328.6840,224.8651,6.098074,0.0654508,0.59860019,125.9208,01/24.0/2021,2000,g 12.0,4.0
# From MPC 75704
P/2001 Q6 (NEAT),e,56.9043,22.1374,42.9402,7.951538,0.0439569,0.82285158,310.2843,01/24.0/2021,2000,g 13.5,4.0
# From MPC 47727
P/2002 EJ57 (LINEAR),e,4.9761,330.3274,167.3670,6.472592,0.0598531,0.59266819,56.8991,01/24.0/2021,2000,g 12.5,4.0
# From MPC109588
P/2002 T6 (NEAT-LINEAR),e,10.8339,206.3983,219.6215,7.673854,0.0463643,0.56022098,300.8275,01/24.0/2021,2000,g 10.5,4.0
# From MPC 75007
C/2002 VQ94 (LINEAR),e,70.5778,35.0233,100.1568,185.6794,0.0003895,0.96319779,2.1330,01/24.0/2021,2000,g  9.5,2.0
# From MPC 50354
P/2003 F2 (NEAT),e,11.6047,359.0632,191.9652,6.492808,0.0595738,0.54228952,26.1283,01/24.0/2021,2000,g 16.5,2.0
# From MPC 50139
P/2003 QX29 (NEAT),e,11.3898,264.5838,37.4274,8.031251,0.0433041,0.47299443,288.3742,01/24.0/2021,2000,g  8.5,4.0
# From MPC105235
P/2003 T12 (SOHO),e,11.0175,174.5737,219.7660,2.586125,0.2369899,0.76966598,62.1230,01/24.0/2021,2000,g 17.0,4.0
# From MPC 82312
P/2004 A1 (LONEOS),e,10.5516,124.8469,21.3875,7.957210,0.0439099,0.30933594,263.8597,01/24.0/2021,2000,g  6.5,4.0
# From MPC 54558
P/2004 DO29 (Spacewatch-LINEAR),e,14.5319,147.3771,40.7113,7.283419,0.0501419,0.44126886,298.4422,01/24.0/2021,2000,g 13.5,2.0
# From MPC 54823
P/2004 FY140 (LINEAR),e,2.1348,326.7603,242.4481,4.902127,0.0908087,0.16851158,182.5676,01/24.0/2021,2000,g 12.5,2.0
# From MPC 53304
P/2004 R3 (LINEAR-NEAT),e,12.8237,305.4812,38.4311,4.797544,0.0937941,0.26126415,337.0229,01/24.0/2021,2000,g 14.5,4.0
# From MPC 55521
P/2004 V3 (Siding Spring),e,50.4354,356.1182,322.3138,7.143214,0.0516254,0.44634179,306.7231,01/24.0/2021,2000,g 11.5,4.0
# From MPC 75705
P/2004 V5 (LINEAR-Hill),e,19.3442,47.7743,87.7615,7.976944,0.0437471,0.44353429,255.0793,01/24.0/2021,2000,g  8.0,4.0
# From MPEC 2021-AJ0
P/2005 CR16,e,9.3938,139.9816,313.1068,6.628284,0.0577567,0.51013358,351.3000,01/24.0/2021,2000,g 12.5,4.0
# From MPC 54164
P/2005 E1 (Tubbiolo),e,4.2637,335.5699,194.1070,7.038251,0.0527846,0.37515837,308.3301,01/24.0/2021,2000,g 10.0,4.0
# From MPC 54823
P/2005 GF8 (LONEOS),e,1.1930,314.8286,284.9913,5.854048,0.0695856,0.51793800,33.5990,01/24.0/2021,2000,g 11.5,4.0
# From MPC 79019
P/2005 J1 (McNaught),e,31.7654,268.8054,338.9600,3.569982,0.1461185,0.56980893,121.9124,01/24.0/2021,2000,g 16.5,4.0
# From MPC 74246
P/2005 L1 (McNaught),e,7.7386,138.2479,149.7075,3.975266,0.1243526,0.20940104,324.8505,01/24.0/2021,2000,g  9.5,4.0
# From MPC 75706
P/2005 S2 (Skiff),e,3.1357,161.1999,229.1520,8.016731,0.0434218,0.19703883,233.4070,01/24.0/2021,2000,g  7.5,4.0
# From MPC 75706
P/2005 SB216 (LONEOS),e,24.0762,1.2238,83.3842,7.128439,0.0517860,0.46342673,265.6684,01/24.0/2021,2000,g 12.0,2.0
# From MPC 55717
P/2005 T2 (Christensen),e,8.2927,260.1577,58.8157,3.846026,0.1306729,0.41639453,37.9767,01/24.0/2021,2000,g 14.5,4.0
# From MPC 73461
P/2005 T3 (Read),e,6.2243,27.7335,6.9525,7.579150,0.0472360,0.17408330,263.8329,01/24.0/2021,2000,g  9.0,4.0
# From MPC 73461
P/2005 T4 (SWAN),e,160.1904,25.6948,41.5990,9.361083,0.0344124,0.92986715,192.5764,01/24.0/2021,2000,g 15.0,4.0
# From MPC 75706
P/2005 T5 (Broughton),e,21.3549,57.0056,304.5352,7.291073,0.0500630,0.55209462,279.7718,01/24.0/2021,2000,g 11.0,4.0
# From MPC 56954
P/2005 W3 (Kowalski),e,16.4189,210.0874,200.7007,6.330573,0.0618785,0.54344007,345.1619,01/24.0/2021,2000,g 12.0,4.0
# From MPC 75706
P/2005 Y2 (McNaught),e,19.0843,94.4952,193.9966,6.387511,0.0610529,0.47074816,5.8307,01/24.0/2021,2000,g  9.0,4.0
# From MPC 56954
P/2006 F4 (Spacewatch),e,12.4081,183.8588,31.1114,3.525593,0.1488867,0.33955019,80.4619,01/24.0/2021,2000,g 15.0,4.0
# From MPC 75707
P/2006 HR30 (Siding Spring),e,31.8294,309.9036,117.2884,7.811289,0.0451461,0.84209389,232.7523,01/24.0/2021,2000,g 11.0,4.0
# From MPC 75707
P/2006 S4 (Christensen),e,39.5340,36.0913,305.1468,6.312687,0.0621416,0.50809814,337.8984,01/24.0/2021,2000,g 11.0,4.0
# From MPC 75707
P/2007 A2 (Christensen),e,26.4877,300.9065,186.7511,6.325645,0.0619508,0.55761363,318.2232,01/24.0/2021,2000,g 13.5,4.0
# From MPEC 2021-AJ0
P/2007 B1 (Christensen),e,12.3774,77.6740,46.6933,5.818887,0.0702173,0.58088959,359.9652,01/24.0/2021,2000,g 13.5,4.0
# From MPEC 2021-AJ0
C/2007 Q3 (Siding Spring),h,10/03.4236/2009,65.3676,149.5577,2.1811,1.000100,2.269878,2000,4.5,4.0
# From MPEC 2021-AJ0
C/2008 FK75 (Lemmon-Siding Spring),h,10/03.8602/2010,61.1590,218.2048,80.4487,1.001787,4.499941,2000,5.0,4.0
# From MPEC 2021-AJ0
C/2009 K5 (McNaught),e,104.1769,258.0221,66.0715,3553,0.0000047,0.99960289,0.0000,05/04.1087/2010,2000,g  7.5,4.0
# From MPEC 2021-AJ0
C/2009 Y1 (Catalina),e,107.3211,159.9545,127.1087,332.6720,0.0001624,0.99245651,0.0000,01/27.4985/2011,2000,g  9.0,4.0
# From MPC 75707
P/2007 C2 (Catalina),e,8.6518,275.5956,179.9406,6.993281,0.0532945,0.47028604,259.3548,01/24.0/2021,2000,g 10.0,4.0
# From MPC 84315
C/2007 D1 (LINEAR),e,41.5016,171.1872,340.0799,1507,0.0000168,0.99414164,0.0000,06/09.3328/2007,2000,g  3.5,4.0
# From MPC 82314
P/2007 K2 (Gibbs),e,7.6352,188.6457,347.4613,7.263451,0.0503488,0.68326899,250.8697,01/24.0/2021,2000,g 14.0,4.0
# From MPC 60925
P/2007 Q2 (Gilmore),e,10.2027,172.1599,162.7753,5.653774,0.0733156,0.67019268,4.2545,01/24.0/2021,2000,g 16.0,4.0
# From MPC 75708
P/2007 R4 (Garradd),e,20.2224,87.2218,282.6358,5.929581,0.0682603,0.67006731,338.2374,01/24.0/2021,2000,g 14.5,4.0
# From MPC 73462
P/2007 S1 (Zhao),e,5.9634,141.3766,245.7080,3.813656,0.1323402,0.33959683,277.6191,01/24.0/2021,2000,g 13.0,4.0
# From MPC 61994
P/2007 T2 (Kowalski),e,9.7461,3.3747,359.6362,3.047115,0.1852980,0.78527954,169.5892,01/24.0/2021,2000,g 18.5,4.0
# From MPC 75708
P/2008 CL94 (Lemmon),e,8.3470,33.3286,80.4964,6.161324,0.0644456,0.12031064,344.5016,01/24.0/2021,2000,g  8.0,4.0
# From MPC 75709
P/2008 L2 (Hill),e,25.8581,218.0060,141.2140,6.028662,0.0665844,0.61307796,304.2553,01/24.0/2021,2000,g 12.5,4.0
# From MPC 64114
P/2008 O3 (Boattini),e,32.2555,47.5949,341.0897,8.222671,0.0418008,0.69517774,193.4934,01/24.0/2021,2000,g 13.0,4.0
# From MPC 75709
P/2008 QP20 (LINEAR-Hill),e,7.5222,322.0744,75.5928,3.553235,0.1471527,0.49213869,309.5077,01/24.0/2021,2000,g 15.5,4.0
# From MPC 66204
P/2008 WZ96 (LINEAR),e,7.1114,56.4674,341.8854,3.489671,0.1511915,0.47021347,327.5382,01/24.0/2021,2000,g 13.5,4.0
# From MPC 75710
P/2008 Y3 (McNaught),e,38.7638,262.7932,238.2519,8.046216,0.0431834,0.44549951,190.5708,01/24.0/2021,2000,g  8.5,4.0
# From MPC 75710
P/2009 B1 (Boattini),e,22.2192,297.0914,128.8890,6.736228,0.0563740,0.63469461,248.0344,01/24.0/2021,2000,g 13.0,4.0
# From MPC 66466
C/2009 G1 (STEREO),e,108.7471,120.4329,175.3980,429.5037,0.0001107,0.99735664,0.0000,04/15.3649/2009,2000,g  9.0,4.0
# From MPC 75710
P/2009 O3 (Hill),e,16.2671,183.7120,154.3969,7.770202,0.0455046,0.68761124,194.1292,01/24.0/2021,2000,g 12.5,4.0
# From MPC 98557
P/2009 Q1 (Hill),e,14.5055,173.9595,157.1259,5.520388,0.0759888,0.49482028,323.1344,01/24.0/2021,2000,g 11.5,4.0
# From MPC 68902
P/2009 Q5 (McNaught),e,40.9772,160.2666,209.0206,7.437506,0.0485918,0.60878348,202.1821,01/24.0/2021,2000,g 10.0,4.0
# From MPC112389
P/2009 T2 (La Sagra),e,27.5510,215.7989,216.4106,7.724078,0.0459128,0.76515200,185.7516,01/24.0/2021,2000,g 14.0,4.0
# From MPC 75711
P/2009 U4 (McNaught),e,10.0805,55.3546,259.8384,5.083978,0.0859802,0.67612675,359.3035,01/24.0/2021,2000,g 14.0,4.0
# From MPC105235
P/2009 WX51 (Catalina),e,9.5954,31.6829,118.0738,3.080540,0.1822904,0.74029878,12.5118,01/24.0/2021,2000,g 19.0,2.0
# From MPC 74247
P/2009 Y2 (Kowalski),e,29.9300,262.0243,172.1630,6.549357,0.0588039,0.63590321,234.1003,01/24.0/2021,2000,g 13.0,4.0
# From MPC 75711
P/2010 A3 (Hill),e,14.8561,64.0227,41.9954,6.076208,0.0658044,0.73333830,260.6708,01/24.0/2021,2000,g 14.0,4.0
# From MPEC 2021-AJ0
P/2010 A5 (LINEAR),e,5.7977,277.6630,307.0896,5.083055,0.0860036,0.66499310,337.0762,01/24.0/2021,2000,g 13.0,4.0
# From MPEC 2021-AJ0
P/2010 B2 (WISE),e,8.9311,0.8487,155.9194,3.110143,0.1796939,0.47991396,8.9170,01/24.0/2021,2000,g 17.0,4.0
# From MPC 75008
P/2010 C1 (Scotti),e,9.1281,141.8860,3.7495,7.103073,0.0520637,0.25864941,212.8249,01/24.0/2021,2000,g  9.5,4.0
# From MPC 75008
P/2010 D2 (WISE),e,57.0847,319.8919,120.0787,6.716030,0.0566285,0.45088885,226.2616,01/24.0/2021,2000,g 16.0,4.0
# From MPC 75009
P/2010 E2 (Jarnac),e,15.4028,177.8246,8.3687,8.638315,0.0388204,0.72013562,153.3049,01/24.0/2021,2000,g 14.0,4.0
# From MPEC 2021-AJ0
P/2010 H2 (Vales),e,14.2732,64.2039,128.2046,3.834258,0.1312750,0.19572387,161.8285,01/24.0/2021,2000,g  6.0,4.0
# From MPEC 2021-AJ0
C/2010 U3 (Boattini),e,55.5230,43.0298,88.0687,2367,0.0000086,0.99643163,0.0000,02/25.8130/2019,2000,g  1.0,4.0
# From MPEC 2021-AJ0
C/2011 KP36 (Spacewatch),e,18.9848,173.2917,180.6711,38.92010,0.0040592,0.87461683,6.9095,01/24.0/2021,2000,g  4.5,4.0
# From MPEC 2021-AJ0
C/2012 F3 (PANSTARRS),h,04/07.3793/2015,11.3269,164.5012,104.3823,1.004699,3.473322,2000,6.5,4.0
# From MPC 70361
